{
  "type": "FeatureCollection",
  "features": [
    {
      "type": "Feature",
      "properties": {
        "norad_id": 37846,
        "name": "GSAT0101 (GALILEO-PFM)",
        "group": "galileo",
        "lat": -36.26209901038345,
        "lon": -41.29407467664602,
        "alt_km": 23218.888517406656,
        "timestamp": "2025-12-02T06:27:53.276636+00:00",
        "meta_object_name": "GSAT0101 (GALILEO-PFM)",
        "meta_object_id": "2011-060A",
        "meta_epoch": "2025-11-24T03:07:29.832960",
        "meta_mean_motion": 1.70475782,
        "meta_eccentricity": 0.00025776,
        "meta_inclination": 57.0574,
        "meta_ra_of_asc_node": 347.3256,
        "meta_arg_of_pericenter": 308.2281,
        "meta_mean_anomaly": 51.7929,
        "meta_ephemeris_type": 0,
        "meta_classification_type": "U",
        "meta_norad_cat_id": 37846,
        "meta_element_set_no": 999,
        "meta_rev_at_epoch": 8762,
        "meta_bstar": 0,
        "meta_mean_motion_dot": -6.3e-07,
        "meta_mean_motion_ddot": 0,
        "tle_line1": "1 37846U 11060A   25328.13020640 -.00000063  00000+0  00000+0 0  9990",
        "tle_line2": "2 37846  57.0574 347.3256 0002577 308.2281  51.7929  1.70475782 87620"
      },
      "geometry": {
        "type": "Point",
        "coordinates": [
          -41.29407467664602,
          -36.26209901038345
        ]
      }
    },
    {
      "type": "Feature",
      "properties": {
        "norad_id": 37847,
        "name": "GSAT0102 (GALILEO-FM2)",
        "group": "galileo",
        "lat": 0.5539279756312808,
        "lon": -12.527430283623557,
        "alt_km": 23214.382454681338,
        "timestamp": "2025-12-02T06:27:53.276659+00:00",
        "meta_object_name": "GSAT0102 (GALILEO-FM2)",
        "meta_object_id": "2011-060B",
        "meta_epoch": "2025-11-29T14:59:45.115008",
        "meta_mean_motion": 1.70475771,
        "meta_eccentricity": 0.00046767,
        "meta_inclination": 57.0566,
        "meta_ra_of_asc_node": 347.1768,
        "meta_arg_of_pericenter": 305.2654,
        "meta_mean_anomaly": 232.3795,
        "meta_ephemeris_type": 0,
        "meta_classification_type": "U",
        "meta_norad_cat_id": 37847,
        "meta_element_set_no": 999,
        "meta_rev_at_epoch": 8772,
        "meta_bstar": 0,
        "meta_mean_motion_dot": -5.6e-07,
        "meta_mean_motion_ddot": 0,
        "tle_line1": "1 37847U 11060B   25333.62482772 -.00000056  00000+0  00000+0 0  9991",
        "tle_line2": "2 37847  57.0566 347.1768 0004676 305.2654 232.3795  1.70475771 87728"
      },
      "geometry": {
        "type": "Point",
        "coordinates": [
          -12.527430283623557,
          0.5539279756312808
        ]
      }
    },
    {
      "type": "Feature",
      "properties": {
        "norad_id": 38857,
        "name": "GSAT0103 (GALILEO-FM3)",
        "group": "galileo",
        "lat": -50.63063442544642,
        "lon": 50.62888439428057,
        "alt_km": 23221.814594874664,
        "timestamp": "2025-12-02T06:27:53.276674+00:00",
        "meta_object_name": "GSAT0103 (GALILEO-FM3)",
        "meta_object_id": "2012-055A",
        "meta_epoch": "2025-11-28T20:42:38.723616",
        "meta_mean_motion": 1.70473322,
        "meta_eccentricity": 0.00022412,
        "meta_inclination": 55.6842,
        "meta_ra_of_asc_node": 107.0477,
        "meta_arg_of_pericenter": 266.7022,
        "meta_mean_anomaly": 93.2527,
        "meta_ephemeris_type": 0,
        "meta_classification_type": "U",
        "meta_norad_cat_id": 38857,
        "meta_element_set_no": 999,
        "meta_rev_at_epoch": 8159,
        "meta_bstar": 0,
        "meta_mean_motion_dot": 5.5e-07,
        "meta_mean_motion_ddot": 0,
        "tle_line1": "1 38857U 12055A   25332.86294819  .00000055  00000+0  00000+0 0  9994",
        "tle_line2": "2 38857  55.6842 107.0477 0002241 266.7022  93.2527  1.70473322 81593"
      },
      "geometry": {
        "type": "Point",
        "coordinates": [
          50.62888439428057,
          -50.63063442544642
        ]
      }
    },
    {
      "type": "Feature",
      "properties": {
        "norad_id": 40128,
        "name": "GSAT0201 (GALILEO 5)",
        "group": "galileo",
        "lat": 43.44753141902283,
        "lon": -23.41007814987974,
        "alt_km": 22154.04407912604,
        "timestamp": "2025-12-02T06:27:53.276687+00:00",
        "meta_object_name": "GSAT0201 (GALILEO 5)",
        "meta_object_id": "2014-050A",
        "meta_epoch": "2025-11-28T09:00:06.762528",
        "meta_mean_motion": 1.85519533,
        "meta_eccentricity": 0.16464881,
        "meta_inclination": 49.0938,
        "meta_ra_of_asc_node": 281.6492,
        "meta_arg_of_pericenter": 171.7362,
        "meta_mean_anomaly": 191.3851,
        "meta_ephemeris_type": 0,
        "meta_classification_type": "U",
        "meta_norad_cat_id": 40128,
        "meta_element_set_no": 999,
        "meta_rev_at_epoch": 7459,
        "meta_bstar": 0,
        "meta_mean_motion_dot": -4.8e-07,
        "meta_mean_motion_ddot": 0,
        "tle_line1": "1 40128U 14050A   25332.37507827 -.00000048  00000+0  00000+0 0  9990",
        "tle_line2": "2 40128  49.0938 281.6492 1646488 171.7362 191.3851  1.85519533 74599"
      },
      "geometry": {
        "type": "Point",
        "coordinates": [
          -23.41007814987974,
          43.44753141902283
        ]
      }
    },
    {
      "type": "Feature",
      "properties": {
        "norad_id": 40129,
        "name": "GSAT0202 (GALILEO 6)",
        "group": "galileo",
        "lat": -45.143619145913355,
        "lon": -139.90496156174208,
        "alt_km": 23112.76593024206,
        "timestamp": "2025-12-02T06:27:53.276699+00:00",
        "meta_object_name": "GSAT0202 (GALILEO 6)",
        "meta_object_id": "2014-050B",
        "meta_epoch": "2025-11-29T17:01:27.924672",
        "meta_mean_motion": 1.85520097,
        "meta_eccentricity": 0.1647266,
        "meta_inclination": 49.1079,
        "meta_ra_of_asc_node": 280.6784,
        "meta_arg_of_pericenter": 172.5408,
        "meta_mean_anomaly": 190.2825,
        "meta_ephemeris_type": 0,
        "meta_classification_type": "U",
        "meta_norad_cat_id": 40129,
        "meta_element_set_no": 999,
        "meta_rev_at_epoch": 7678,
        "meta_bstar": 0,
        "meta_mean_motion_dot": -5.4e-07,
        "meta_mean_motion_ddot": 0,
        "tle_line1": "1 40129U 14050B   25333.70935098 -.00000054  00000+0  00000+0 0  9991",
        "tle_line2": "2 40129  49.1079 280.6784 1647266 172.5408 190.2825  1.85520097 76784"
      },
      "geometry": {
        "type": "Point",
        "coordinates": [
          -139.90496156174208,
          -45.143619145913355
        ]
      }
    },
    {
      "type": "Feature",
      "properties": {
        "norad_id": 40544,
        "name": "GSAT0203 (GALILEO 7)",
        "group": "galileo",
        "lat": 56.80609482938338,
        "lon": 79.35021455256985,
        "alt_km": 23234.700073347536,
        "timestamp": "2025-12-02T06:27:53.276711+00:00",
        "meta_object_name": "GSAT0203 (GALILEO 7)",
        "meta_object_id": "2015-017A",
        "meta_epoch": "2025-11-29T04:30:08.373888",
        "meta_mean_motion": 1.70475942,
        "meta_eccentricity": 0.00064961,
        "meta_inclination": 56.8498,
        "meta_ra_of_asc_node": 347.0502,
        "meta_arg_of_pericenter": 266.8168,
        "meta_mean_anomaly": 93.1521,
        "meta_ephemeris_type": 0,
        "meta_classification_type": "U",
        "meta_norad_cat_id": 40544,
        "meta_element_set_no": 999,
        "meta_rev_at_epoch": 6579,
        "meta_bstar": 0,
        "meta_mean_motion_dot": -5.6e-07,
        "meta_mean_motion_ddot": 0,
        "tle_line1": "1 40544U 15017A   25333.18759692 -.00000056  00000+0  00000+0 0  9994",
        "tle_line2": "2 40544  56.8498 347.0502 0006496 266.8168  93.1521  1.70475942 65799"
      },
      "geometry": {
        "type": "Point",
        "coordinates": [
          79.35021455256985,
          56.80609482938338
        ]
      }
    },
    {
      "type": "Feature",
      "properties": {
        "norad_id": 40545,
        "name": "GSAT0204 (GALILEO 8)",
        "group": "galileo",
        "lat": -49.581100297500775,
        "lon": -63.12862383448638,
        "alt_km": 23212.260077231997,
        "timestamp": "2025-12-02T06:27:53.276722+00:00",
        "meta_object_name": "GSAT0204 (GALILEO 8)",
        "meta_object_id": "2015-017B",
        "meta_epoch": "2025-12-01T04:52:01.322976",
        "meta_mean_motion": 1.70475428,
        "meta_eccentricity": 0.0006258,
        "meta_inclination": 56.8545,
        "meta_ra_of_asc_node": 347.0126,
        "meta_arg_of_pericenter": 260.1832,
        "meta_mean_anomaly": 99.7883,
        "meta_ephemeris_type": 0,
        "meta_classification_type": "U",
        "meta_norad_cat_id": 40545,
        "meta_element_set_no": 999,
        "meta_rev_at_epoch": 2887,
        "meta_bstar": 0,
        "meta_mean_motion_dot": -5.9e-07,
        "meta_mean_motion_ddot": 0,
        "tle_line1": "1 40545U 15017B   25335.20279309 -.00000059  00000+0  00000+0 0  9995",
        "tle_line2": "2 40545  56.8545 347.0126 0006258 260.1832  99.7883  1.70475428 28876"
      },
      "geometry": {
        "type": "Point",
        "coordinates": [
          -63.12862383448638,
          -49.581100297500775
        ]
      }
    }
  ]
}